GLOBALSTAR M057         
1 25943U 99058A   24231.10627366 -.00000066  00000+0  24737-3 0  9995
2 25943  51.9973 128.3240 0002723  97.7543 262.3615 12.24791520129794
GLOBALSTAR M059         
1 25944U 99058B   24231.39284209 -.00000095  00000+0 -10587-3 0  9993
2 25944  52.0032 306.3229 0000667 105.4995 334.7485 11.99964532126445
GLOBALSTAR M056         
1 25945U 99058C   24231.52848021 -.00000076  00000+0  13147-3 0  9990
2 25945  51.9982 315.6863 0000292 256.5776 210.0802 12.04775393126197
GLOBALSTAR M031         
1 25946U 99058D   24231.44961428 -.00000154  00000+0 -64145-3 0  9991
2 25946  51.9936 226.3503 0001428 284.4052 209.3179 12.16014275127956
GLOBALSTAR M039         
1 25961U 99062A   24231.06029729 -.00000062  00000+0  23392-3 0  9996
2 25961  51.9837 111.9637 0003431  41.4413 318.6713 12.62299790141938
GLOBALSTAR M034         
1 25962U 99062B   24230.99571594 -.00000114  00000+0 -52743-3 0  9991
2 25962  51.9871  79.5006 0013552 185.9290 328.7934 11.79430414102614
GLOBALSTAR M029         
1 25963U 99062C   24231.22065632 -.00000074  00000+0  14696-3 0  9999
2 25963  51.9780 195.0818 0002415 247.6219 217.6331 11.99882069132802
GLOBALSTAR M061         
1 25964U 99062D   24231.22778763 -.00000041  00000+0  64140-3 0  9999
2 25964  51.9769 258.9188 0006089 117.1625 318.9874 11.76763871 85800
